start=new Date('2022-04-23T00:00:00.000Z').valueOf();
sats=[{"LAUNCH_DATE":"2020-09-03","COUNTRY_CODE":"US","MEAN_MOTION_DDOT":"0.0000000000000","SITE":"AFETR","EPHEMERIS_TYPE":"0","OBJECT_TYPE":"PAYLOAD","ARG_OF_PERICENTER":"56.1790","TIME_SYSTEM":"UTC","SEMIMAJOR_AXIS":"6925.328","MEAN_ANOMALY":"303.9349","REV_AT_EPOCH":"9092","ELEMENT_SET_NO":"999","DECAY_DATE":null,"CENTER_NAME":"EARTH","EPOCH":"2022-04-22T18:47:21.126624","ECCENTRICITY":"0.00015740","PERIOD":"95.592","TLE_LINE1":"1 46338U 20062P   22112.78288341  .00003439  00000-0  24964-3 0  9990","RCS_SIZE":"LARGE","INCLINATION":"53.0556","OBJECT_ID":"2020-062P","MEAN_ELEMENT_THEORY":"SGP4","RA_OF_ASC_NODE":"257.3594","MEAN_MOTION":"15.06406793","APOAPSIS":"548.283","OBJECT_NAME":"STARLINK-1752","CLASSIFICATION_TYPE":"U","NORAD_CAT_ID":"46338","TLE_LINE2":"2 46338  53.0556 257.3594 0001574  56.1790 303.9349 15.06406793 90922","GP_ID":"201829194","FILE":"3411560","REF_FRAME":"TEME","PERIAPSIS":"546.103","MEAN_MOTION_DOT":"0.00003439","BSTAR":"0.00024964000000"},{"RCS_SIZE":"LARGE","INCLINATION":"53.0556","PERIOD":"95.592","TLE_LINE1":"1 46340U 20062R   22112.49074916  .00000238  00000-0  34915-4 0  9994","RA_OF_ASC_NODE":"258.6694","MEAN_ELEMENT_THEORY":"SGP4","OBJECT_NAME":"STARLINK-1759","APOAPSIS":"548.462","MEAN_MOTION":"15.06399978","OBJECT_ID":"2020-062R","FILE":"3411458","TLE_LINE2":"2 46340  53.0556 258.6694 0001802  59.8331 300.2837 15.06399978 90709","NORAD_CAT_ID":"46340","GP_ID":"201822663","REF_FRAME":"TEME","CLASSIFICATION_TYPE":"U","BSTAR":"0.00003491500000","PERIAPSIS":"545.966","MEAN_MOTION_DOT":"0.00000238","COUNTRY_CODE":"US","MEAN_MOTION_DDOT":"0.0000000000000","LAUNCH_DATE":"2020-09-03","ARG_OF_PERICENTER":"59.8331","SITE":"AFETR","EPHEMERIS_TYPE":"0","OBJECT_TYPE":"PAYLOAD","ELEMENT_SET_NO":"999","CENTER_NAME":"EARTH","DECAY_DATE":null,"SEMIMAJOR_AXIS":"6925.349","TIME_SYSTEM":"UTC","REV_AT_EPOCH":"9070","MEAN_ANOMALY":"300.2837","ECCENTRICITY":"0.00018020","EPOCH":"2022-04-22T11:46:40.727424"},{"COUNTRY_CODE":"US","MEAN_MOTION_DDOT":"0.0000000000000","LAUNCH_DATE":"2020-09-03","ARG_OF_PERICENTER":"55.2243","SITE":"AFETR","OBJECT_TYPE":"PAYLOAD","EPHEMERIS_TYPE":"0","TIME_SYSTEM":"UTC","SEMIMAJOR_AXIS":"6925.330","REV_AT_EPOCH":"9101","MEAN_ANOMALY":"304.8898","ELEMENT_SET_NO":"999","CENTER_NAME":"EARTH","DECAY_DATE":null,"EPOCH":"2022-04-22T15:07:04.554048","ECCENTRICITY":"0.00016170","PERIOD":"95.592","TLE_LINE1":"1 46341U 20062S   22112.62991382  .00002517  00000-0  18780-3 0  9998","INCLINATION":"53.0547","RCS_SIZE":"LARGE","OBJECT_ID":"2020-062S","RA_OF_ASC_NODE":"238.0451","MEAN_ELEMENT_THEORY":"SGP4","OBJECT_NAME":"STARLINK-1760","MEAN_MOTION":"15.06405920","APOAPSIS":"548.315","CLASSIFICATION_TYPE":"U","FILE":"3411458","TLE_LINE2":"2 46341  53.0547 238.0451 0001617  55.2243 304.8898 15.06405920 91016","GP_ID":"201822913","NORAD_CAT_ID":"46341","REF_FRAME":"TEME","PERIAPSIS":"546.076","MEAN_MOTION_DOT":"0.00002517","BSTAR":"0.00018780000000"},{"RA_OF_ASC_NODE":"257.8249","MEAN_ELEMENT_THEORY":"SGP4","OBJECT_NAME":"STARLINK-1762","APOAPSIS":"548.278","MEAN_MOTION":"15.06412330","OBJECT_ID":"2020-062T","INCLINATION":"53.0536","RCS_SIZE":"LARGE","PERIOD":"95.591","TLE_LINE1":"1 46342U 20062T   22112.67598560  .00002408  00000-0  18044-3 0  9997","BSTAR":"0.00018044000000","PERIAPSIS":"546.073","MEAN_MOTION_DOT":"0.00002408","FILE":"3411478","TLE_LINE2":"2 46342  53.0536 257.8249 0001592  61.6446 298.4704 15.06412330 90912","GP_ID":"201827752","NORAD_CAT_ID":"46342","REF_FRAME":"TEME","CLASSIFICATION_TYPE":"U","ARG_OF_PERICENTER":"61.6446","SITE":"AFETR","EPHEMERIS_TYPE":"0","OBJECT_TYPE":"PAYLOAD","COUNTRY_CODE":"US","MEAN_MOTION_DDOT":"0.0000000000000","LAUNCH_DATE":"2020-09-03","ECCENTRICITY":"0.00015920","EPOCH":"2022-04-22T16:13:25.155840","ELEMENT_SET_NO":"999","CENTER_NAME":"EARTH","DECAY_DATE":null,"TIME_SYSTEM":"UTC","SEMIMAJOR_AXIS":"6925.311","REV_AT_EPOCH":"9091","MEAN_ANOMALY":"298.4704"},{"COUNTRY_CODE":"US","MEAN_MOTION_DDOT":"0.0000000000000","LAUNCH_DATE":"2020-09-03","ARG_OF_PERICENTER":"59.7467","EPHEMERIS_TYPE":"0","SITE":"AFETR","OBJECT_TYPE":"PAYLOAD","SEMIMAJOR_AXIS":"6925.326","TIME_SYSTEM":"UTC","REV_AT_EPOCH":"9120","MEAN_ANOMALY":"300.3693","ELEMENT_SET_NO":"999","CENTER_NAME":"EARTH","DECAY_DATE":null,"EPOCH":"2022-04-22T17:40:59.645280","ECCENTRICITY":"0.00017320","PERIOD":"95.592","TLE_LINE1":"1 46343U 20062U   22112.73680145  .00002814  00000-0  20772-3 0  9998","RCS_SIZE":"LARGE","INCLINATION":"53.0565","OBJECT_ID":"2020-062U","RA_OF_ASC_NODE":"237.5786","MEAN_ELEMENT_THEORY":"SGP4","OBJECT_NAME":"STARLINK-1764","APOAPSIS":"548.390","MEAN_MOTION":"15.06407482","CLASSIFICATION_TYPE":"U","FILE":"3411544","GP_ID":"201829240","TLE_LINE2":"2 46343  53.0565 237.5786 0001732  59.7467 300.3693 15.06407482 91208","NORAD_CAT_ID":"46343","REF_FRAME":"TEME","PERIAPSIS":"545.991","MEAN_MOTION_DOT":"0.00002814","BSTAR":"0.00020772000000"},{"MEAN_ELEMENT_THEORY":"SGP4","RA_OF_ASC_NODE":"238.0812","MEAN_MOTION":"15.06420727","APOAPSIS":"548.433","OBJECT_NAME":"STARLINK-1765","OBJECT_ID":"2020-062V","INCLINATION":"53.0555","RCS_SIZE":"LARGE","PERIOD":"95.591","TLE_LINE1":"1 46344U 20062V   22112.62254152  .00007946  00000-0  55140-3 0  9990","BSTAR":"0.00055140000000","PERIAPSIS":"545.867","MEAN_MOTION_DOT":"0.00007946","NORAD_CAT_ID":"46344","TLE_LINE2":"2 46344  53.0555 238.0812 0001852  53.9893 306.1268 15.06420727 91003","GP_ID":"201822164","FILE":"3411458","REF_FRAME":"TEME","CLASSIFICATION_TYPE":"U","OBJECT_TYPE":"PAYLOAD","SITE":"AFETR","EPHEMERIS_TYPE":"0","ARG_OF_PERICENTER":"53.9893","LAUNCH_DATE":"2020-09-03","COUNTRY_CODE":"US","MEAN_MOTION_DDOT":"0.0000000000000","ECCENTRICITY":"0.00018520","EPOCH":"2022-04-22T14:56:27.587328","ELEMENT_SET_NO":"999","DECAY_DATE":null,"CENTER_NAME":"EARTH","TIME_SYSTEM":"UTC","SEMIMAJOR_AXIS":"6925.285","MEAN_ANOMALY":"306.1268","REV_AT_EPOCH":"9100"},{"OBJECT_ID":"2020-062W","OBJECT_NAME":"STARLINK-1767","MEAN_MOTION":"15.06411802","APOAPSIS":"548.304","RA_OF_ASC_NODE":"258.3577","MEAN_ELEMENT_THEORY":"SGP4","TLE_LINE1":"1 46345U 20062W   22112.55803783  .00003219  00000-0  23480-3 0  9994","PERIOD":"95.591","RCS_SIZE":"LARGE","INCLINATION":"53.0530","MEAN_MOTION_DOT":"0.00003219","PERIAPSIS":"546.051","BSTAR":"0.00023480000000","CLASSIFICATION_TYPE":"U","REF_FRAME":"TEME","FILE":"3411458","NORAD_CAT_ID":"46345","TLE_LINE2":"2 46345  53.0530 258.3577 0001627  59.9160 300.1990 15.06411802 90710","GP_ID":"201822414","ARG_OF_PERICENTER":"59.9160","SITE":"AFETR","OBJECT_TYPE":"PAYLOAD","EPHEMERIS_TYPE":"0","COUNTRY_CODE":"US","MEAN_MOTION_DDOT":"0.0000000000000","LAUNCH_DATE":"2020-09-03","EPOCH":"2022-04-22T13:23:34.468512","ECCENTRICITY":"0.00016270","REV_AT_EPOCH":"9071","MEAN_ANOMALY":"300.1990","TIME_SYSTEM":"UTC","SEMIMAJOR_AXIS":"6925.312","CENTER_NAME":"EARTH","DECAY_DATE":null,"ELEMENT_SET_NO":"999"},{"FILE":"3411493","TLE_LINE2":"2 46346  53.0539 112.1067 0004209  13.5681 346.5433 15.34328126 92977","NORAD_CAT_ID":"46346","GP_ID":"201828137","REF_FRAME":"TEME","CLASSIFICATION_TYPE":"U","BSTAR":"0.00050412000000","PERIAPSIS":"460.039","MEAN_MOTION_DOT":"0.00016659","INCLINATION":"53.0539","RCS_SIZE":"LARGE","PERIOD":"93.852","TLE_LINE1":"1 46346U 20062X   22112.71471608  .00016659  00000-0  50412-3 0  9997","RA_OF_ASC_NODE":"112.1067","MEAN_ELEMENT_THEORY":"SGP4","OBJECT_NAME":"STARLINK-1546","APOAPSIS":"465.798","MEAN_MOTION":"15.34328126","OBJECT_ID":"2020-062X","ELEMENT_SET_NO":"999","CENTER_NAME":"EARTH","DECAY_DATE":null,"TIME_SYSTEM":"UTC","SEMIMAJOR_AXIS":"6841.054","REV_AT_EPOCH":"9297","MEAN_ANOMALY":"346.5433","ECCENTRICITY":"0.00042090","EPOCH":"2022-04-22T17:09:11.469312","COUNTRY_CODE":"US","MEAN_MOTION_DDOT":"0.0000000000000","LAUNCH_DATE":"2020-09-03","ARG_OF_PERICENTER":"13.5681","SITE":"AFETR","EPHEMERIS_TYPE":"0","OBJECT_TYPE":"PAYLOAD"},{"ARG_OF_PERICENTER":"44.8335","SITE":"AFETR","EPHEMERIS_TYPE":"0","OBJECT_TYPE":"PAYLOAD","MEAN_MOTION_DDOT":"0.0000000000000","COUNTRY_CODE":"US","LAUNCH_DATE":"2020-09-03","ECCENTRICITY":"0.00018070","EPOCH":"2022-04-22T13:58:45.170400","CENTER_NAME":"EARTH","DECAY_DATE":null,"ELEMENT_SET_NO":"999","REV_AT_EPOCH":"9133","MEAN_ANOMALY":"315.2800","SEMIMAJOR_AXIS":"6925.349","TIME_SYSTEM":"UTC","OBJECT_NAME":"STARLINK-1547","APOAPSIS":"548.466","MEAN_MOTION":"15.06399707","RA_OF_ASC_NODE":"213.2489","MEAN_ELEMENT_THEORY":"SGP4","OBJECT_ID":"2020-062Y","INCLINATION":"53.0541","RCS_SIZE":"LARGE","TLE_LINE1":"1 46347U 20062Y   22112.58246725  .00001351  00000-0  10961-3 0  9991","PERIOD":"95.592","BSTAR":"0.00010961000000","MEAN_MOTION_DOT":"0.00001351","PERIAPSIS":"545.963","REF_FRAME":"TEME","FILE":"3411458","TLE_LINE2":"2 46347  53.0541 213.2489 0001807  44.8335 315.2800 15.06399707 91338","GP_ID":"201821413","NORAD_CAT_ID":"46347","CLASSIFICATION_TYPE":"U"},{"ARG_OF_PERICENTER":"69.4102","OBJECT_TYPE":"PAYLOAD","SITE":"AFETR","EPHEMERIS_TYPE":"0","COUNTRY_CODE":"US","MEAN_MOTION_DDOT":"0.0000000000000","LAUNCH_DATE":"2020-09-03","ECCENTRICITY":"0.00016990","EPOCH":"2022-04-22T15:01:45.755328","CENTER_NAME":"EARTH","DECAY_DATE":null,"ELEMENT_SET_NO":"999","REV_AT_EPOCH":"9100","MEAN_ANOMALY":"290.7069","SEMIMAJOR_AXIS":"6925.306","TIME_SYSTEM":"UTC","OBJECT_NAME":"STARLINK-1553","APOAPSIS":"548.347","MEAN_MOTION":"15.06413945","RA_OF_ASC_NODE":"238.0514","MEAN_ELEMENT_THEORY":"SGP4","OBJECT_ID":"2020-062Z","RCS_SIZE":"LARGE","INCLINATION":"53.0542","TLE_LINE1":"1 46348U 20062Z   22112.62622402  .00005113  00000-0  36179-3 0  9996","PERIOD":"95.591","BSTAR":"0.00036179000000","MEAN_MOTION_DOT":"0.00005113","PERIAPSIS":"545.994","REF_FRAME":"TEME","FILE":"3411458","NORAD_CAT_ID":"46348","TLE_LINE2":"2 46348  53.0542 238.0514 0001699  69.4102 290.7069 15.06413945 91007","GP_ID":"201822664","CLASSIFICATION_TYPE":"U"}];
